$$SOE
2460728.500000000, A.D. 2025-Feb-22 00:00:00.0000, -4.091808575823001E+08, 7.353576711584921E+07, -1.651622486113313E+08,
2460735.500000000, A.D. 2025-Mar-01 00:00:00.0000, -4.097363069047363E+08, 6.475961595836492E+07, -1.651177174532937E+08,
2460742.500000000, A.D. 2025-Mar-08 00:00:00.0000, -4.100682356692863E+08, 5.594810701696199E+07, -1.649831134333990E+08,
2460749.500000000, A.D. 2025-Mar-15 00:00:00.0000, -4.101750450331177E+08, 4.710585585492448E+07, -1.647579413608866E+08,
2460756.500000000, A.D. 2025-Mar-22 00:00:00.0000, -4.100551379094554E+08, 3.823754398222869E+07, -1.644417079800985E+08,
2460763.500000000, A.D. 2025-Mar-29 00:00:00.0000, -4.097069201390587E+08, 2.934792234799657E+07, -1.640339223229888E+08,
2460770.500000000, A.D. 2025-Apr-05 00:00:00.0000, -4.091288001322569E+08, 2.044181589544109E+07, -1.635340962126190E+08,
2460777.500000000, A.D. 2025-Apr-12 00:00:00.0000, -4.083191889179863E+08, 1.152412929162595E+07, -1.629417447366052E+08,
2460784.500000000, A.D. 2025-Apr-19 00:00:00.0000, -4.072765008013796E+08, 2.599852960197575E+06, -1.622563867528765E+08,
2460791.500000000, A.D. 2025-Apr-26 00:00:00.0000, -4.059991543746558E+08, -6.325930773728147E+06, -1.614775454781345E+08,
2460798.500000000, A.D. 2025-May-03 00:00:00.0000, -4.044855737849107E+08, -1.524804139346521E+07, -1.606047491765512E+08,
2460805.500000000, A.D. 2025-May-10 00:00:00.0000, -4.027341902484981E+08, -2.416119373241821E+07, -1.596375319589798E+08,
2460812.500000000, A.D. 2025-May-17 00:00:00.0000, -4.007434437950433E+08, -3.305999137424445E+07, -1.585754347078243E+08,
2460819.500000000, A.D. 2025-May-24 00:00:00.0000, -3.985117850888890E+08, -4.193891995188716E+07, -1.574180061568578E+08,
2460826.500000000, A.D. 2025-May-31 00:00:00.0000, -3.960376769341230E+08, -5.079234002057061E+07, -1.561648041484717E+08,
2460833.500000000, A.D. 2025-Jun-07 00:00:00.0000, -3.933195958903705E+08, -5.961447828638007E+07, -1.548153969435007E+08,
2460840.500000000, A.D. 2025-Jun-14 00:00:00.0000, -3.903560363932515E+08, -6.839941784458505E+07, -1.533693644331327E+08,
2460847.500000000, A.D. 2025-Jun-21 00:00:00.0000, -3.871455161967773E+08, -7.714109068661338E+07, -1.518262996463047E+08,
2460854.500000000, A.D. 2025-Jun-28 00:00:00.0000, -3.836865800471841E+08, -8.583327069716008E+07, -1.501858107108456E+08,
2460861.500000000, A.D. 2025-Jul-05 00:00:00.0000, -3.799778031443464E+08, -9.446956497135864E+07, -1.484475229681920E+08,
2460868.500000000, A.D. 2025-Jul-12 00:00:00.0000, -3.760177956248770E+08, -1.030434042462108E+08, -1.466110812150567E+08,
2460875.500000000, A.D. 2025-Jul-19 00:00:00.0000, -3.718052079262653E+08, -1.115480330118958E+08, -1.446761521564052E+08,
2460882.500000000, A.D. 2025-Jul-26 00:00:00.0000, -3.673387368768178E+08, -1.199764993507038E+08, -1.426424271160356E+08,
2460889.500000000, A.D. 2025-Aug-02 00:00:00.0000, -3.626171325059774E+08, -1.283216444742454E+08, -1.405096250331225E+08,
2460896.500000000, A.D. 2025-Aug-09 00:00:00.0000, -3.576392056171146E+08, -1.365760919680342E+08, -1.382774957740733E+08,
2460903.500000000, A.D. 2025-Aug-16 00:00:00.0000, -3.524038361176587E+08, -1.447322368040568E+08, -1.359458238002869E+08,
2460910.500000000, A.D. 2025-Aug-23 00:00:00.0000, -3.469099818927512E+08, -1.527822341057593E+08, -1.335144322483147E+08,
2460917.500000000, A.D. 2025-Aug-30 00:00:00.0000, -3.411566879796968E+08, -1.607179869564967E+08, -1.309831874279648E+08,
2460924.500000000, A.D. 2025-Sep-06 00:00:00.0000, -3.351430975551048E+08, -1.685311322615958E+08, -1.283520035630190E+08,
2460931.500000000, A.D. 2025-Sep-13 00:00:00.0000, -3.288684665080997E+08, -1.762130271647735E+08, -1.256208478645931E+08,
2460938.500000000, A.D. 2025-Sep-20 00:00:00.0000, -3.223321784405272E+08, -1.837547376894543E+08, -1.227897464171007E+08,
2460945.500000000, A.D. 2025-Sep-27 00:00:00.0000, -3.155337591605971E+08, -1.911470265269309E+08, -1.198587907683081E+08,
2460952.500000000, A.D. 2025-Oct-04 00:00:00.0000, -3.084728928204129E+08, -1.983803394754289E+08, -1.168281450453481E+08,
2460959.500000000, A.D. 2025-Oct-11 00:00:00.0000, -3.011494402147594E+08, -2.054447915304573E+08, -1.136980536942838E+08,
2460966.500000000, A.D. 2025-Oct-18 00:00:00.0000, -2.935634591136059E+08, -2.123301529752095E+08, -1.104688499520027E+08,
2460973.500000000, A.D. 2025-Oct-25 00:00:00.0000, -2.857152266587642E+08, -2.190258355529484E+08, -1.071409651282654E+08,
2460980.500000000, A.D. 2025-Nov-01 00:00:00.0000, -2.776052639688231E+08, -2.255208788197113E+08, -1.037149387708102E+08,
2460987.500000000, A.D. 2025-Nov-08 00:00:00.0000, -2.692343631143144E+08, -2.318039368473152E+08, -1.001914297939162E+08,
2460994.500000000, A.D. 2025-Nov-15 00:00:00.0000, -2.606036165246280E+08, -2.378632655030022E+08, -9.657122866747051E+07,
2461001.500000000, A.D. 2025-Nov-22 00:00:00.0000, -2.517144486459732E+08, -2.436867102868098E+08, -9.285527076755112E+07,
2461008.500000000, A.D. 2025-Nov-29 00:00:00.0000, -2.425686502362454E+08, -2.492616938303362E+08, -8.904465086546619E+07,
2461015.500000000, A.D. 2025-Dec-06 00:00:00.0000, -2.331684178131145E+08, -2.545752034748542E+08, -8.514063864108123E+07,
2461022.500000000, A.D. 2025-Dec-13 00:00:00.0000, -2.235163980632132E+08, -2.596137826345989E+08, -8.114469561948298E+07,
2461029.500000000, A.D. 2025-Dec-20 00:00:00.0000, -2.136157339628219E+08, -2.643635253218331E+08, -7.705849385302885E+07,
2461036.500000000, A.D. 2025-Dec-27 00:00:00.0000, -2.034701139267934E+08, -2.688100717132156E+08, -7.288393612360528E+07,
2461043.500000000, A.D. 2026-Jan-03 00:00:00.0000, -1.930838256822679E+08, -2.729386059215462E+08, -6.862317766279207E+07,
2461050.500000000, A.D. 2026-Jan-10 00:00:00.0000, -1.824618149805538E+08, -2.767338572850980E+08, -6.427864952713081E+07,
2461057.500000000, A.D. 2026-Jan-17 00:00:00.0000, -1.716097491096814E+08, -2.801801059936544E+08, -5.985308371331117E+07,
2461064.500000000, A.D. 2026-Jan-24 00:00:00.0000, -1.605340852818458E+08, -2.832611938622197E+08, -5.534954005368505E+07,
2461071.500000000, A.D. 2026-Jan-31 00:00:00.0000, -1.492421439653567E+08, -2.859605412093776E+08, -5.077143490239950E+07,
2461078.500000000, A.D. 2026-Feb-07 00:00:00.0000, -1.377421871122484E+08, -2.882611709707467E+08, -4.612257159363694E+07,
2461085.500000000, A.D. 2026-Feb-14 00:00:00.0000, -1.260435009347648E+08, -2.901457412663688E+08, -4.140717262130627E+07,
2461092.500000000, A.D. 2026-Feb-21 00:00:00.0000, -1.141564826132996E+08, -2.915965871832702E+08, -3.662991339549889E+07,
2461099.500000000, A.D. 2026-Feb-28 00:00:00.0000, -1.020927316193544E+08, -2.925957720911374E+08, -3.179595717668828E+07,
2461106.500000000, A.D. 2026-Mar-07 00:00:00.0000, -8.986514709683484E+07, -2.931251520384364E+08, -2.691099086474898E+07,
2461113.500000000, A.D. 2026-Mar-14 00:00:00.0000, -7.748802765077324E+07, -2.931664572744367E+08, -2.198126168913420E+07,
2461120.500000000, A.D. 2026-Mar-21 00:00:00.0000, -6.497717057690560E+07, -2.927013898029220E+08, -1.701361420214036E+07,
2461127.500000000, A.D. 2026-Mar-28 00:00:00.0000, -5.234997099229808E+07, -2.917117377892835E+08, -1.201552663373771E+07,
2461134.500000000, A.D. 2026-Apr-04 00:00:00.0000, -3.962551949614565E+07, -2.901795096263366E+08, -6.995145788583994E+06,
2461141.500000000, A.D. 2026-Apr-11 00:00:00.0000, -2.682469563014062E+07, -2.880870897711797E+08, -1.961319506827578E+06,
2461148.500000000, A.D. 2026-Apr-18 00:00:00.0000, -1.397025398693513E+07, -2.854174179220308E+08, 3.076374536253601E+06,
2461155.500000000, A.D. 2026-Apr-25 00:00:00.0000, -1.086899348435886E+06, -2.821541927668656E+08, 8.107605147478878E+06,
2461162.500000000, A.D. 2026-May-02 00:00:00.0000, 1.179865335141024E+07, -2.782821011149223E+08, 1.312127072690327E+07,
2461169.500000000, A.D. 2026-May-09 00:00:00.0000, 2.465763913064538E+07, -2.737870726093091E+08, 1.810549105658704E+07,
2461176.500000000, A.D. 2026-May-16 00:00:00.0000, 3.745922882254511E+07, -2.686565591486707E+08, 2.304760983878255E+07,
2461183.500000000, A.D. 2026-May-23 00:00:00.0000, 5.017054651958311E+07, -2.628798361658835E+08, 2.793421030577257E+07,
2461190.500000000, A.D. 2026-May-30 00:00:00.0000, 6.275672258530159E+07, -2.564483222836806E+08, 3.275114643811442E+07,
2461197.500000000, A.D. 2026-Jun-06 00:00:00.0000, 7.518098804480423E+07, -2.493559159060677E+08, 3.748359184828398E+07,
2461204.500000000, A.D. 2026-Jun-13 00:00:00.0000, 8.740481989409479E+07, -2.415993420990795E+08, 4.211610815036347E+07,
2461211.500000000, A.D. 2026-Jun-20 00:00:00.0000, 9.938814204146783E+07, -2.331784985379835E+08, 4.663273492564627E+07,
2461218.500000000, A.D. 2026-Jun-27 00:00:00.0000, 1.110895842557065E+08, -2.240967906912400E+08, 5.101710272930840E+07,
2461225.500000000, A.D. 2026-Jul-04 00:00:00.0000, 1.224668015191220E+08, -2.143614450969748E+08, 5.525256967456743E+07,
2461232.500000000, A.D. 2026-Jul-11 00:00:00.0000, 1.334768542058720E+08, -2.039837874970728E+08, 5.932238123030628E+07,
2461239.500000000, A.D. 2026-Jul-18 00:00:00.0000, 1.440766465845949E+08, -1.929794714888799E+08, 6.320985176970272E+07,
2461246.500000000, A.D. 2026-Jul-25 00:00:00.0000, 1.542234178824802E+08, -1.813686431341813E+08, 6.689856512902584E+07,
2461253.500000000, A.D. 2026-Aug-01 00:00:00.0000, 1.638752767190270E+08, -1.691760276626912E+08, 7.037259006189303E+07,
2461260.500000000, A.D. 2026-Aug-08 00:00:00.0000, 1.729917664204254E+08, -1.564309260762490E+08, 7.361670511889605E+07,
2461267.500000000, A.D. 2026-Aug-15 00:00:00.0000, 1.815344457364326E+08, -1.431671117568168E+08, 7.661662631973456E+07,
2461274.500000000, A.D. 2026-Aug-22 00:00:00.0000, 1.894674657031128E+08, -1.294226202367616E+08, 7.935923024547991E+07,
2461281.500000000, A.D. 2026-Aug-29 00:00:00.0000, 1.967581201778333E+08, -1.152394325633377E+08, 8.183276458220004E+07,
2461288.500000000, A.D. 2026-Sep-05 00:00:00.0000, 2.033773515025942E+08, -1.006630594195304E+08, 8.402703758550271E+07,
$$EOE